STARLINK-4645           
1 53743U 22107AV  26068.83200108 -.00000086  00000+0  12715-4 0  9992
2 53743  53.2167 263.5720 0001382  88.4399 271.6752 15.08842500194612
LEMUR-2-LANGER2SPACE    
1 63358U 25061H   26068.93705617  .00006238  00000+0  35148-3 0  9991
2 63358  97.5541  45.3892 0015335 237.4180 122.5571 15.13463796 52602
